IRIDIUM 171             
1 43929U 19002H   24246.61637597  .00000173  00000+0  54628-4 0  9990
2 43929  86.3919 266.4957 0002249  99.6191 260.5259 14.34218771295425
IRIDIUM 170             
1 43930U 19002J   24246.53920791  .00001207  00000+0  18756-3 0  9994
2 43930  86.6041 266.3339 0002542  90.4351 269.7157 14.72245525303238
IRIDIUM 167             
1 43931U 19002K   24246.61003454  .00000353  00000+0  11907-3 0  9994
2 43931  86.3910 266.2809 0002207  93.9098 266.2350 14.34217688295421
IRIDIUM 181             
1 56726U 23068S   24246.60301478  .00001319  00000+0  38379-3 0  9998
2 56726  86.8666 323.8041 0001942  99.8353 260.3068 14.43585179 68301
IRIDIUM 177             
1 56727U 23068T   24246.56139759  .00003934  00000+0  51372-3 0  9998
2 56727  86.1929 278.6195 0002047  96.0855 264.0599 14.80266049 69828
IRIDIUM 174             
1 56728U 23068U   24246.55596436  .00003872  00000+0  50561-3 0  9997
2 56728  86.1935 278.7318 0001804 102.0539 258.0884 14.80265815 69821
IRIDIUM 178             
1 56729U 23068V   24246.61820911  .00003886  00000+0  50779-3 0  9999
2 56729  86.5767 299.8486 0002132 100.7013 259.4449 14.80240011 69830
IRIDIUM 179             
1 56730U 23068W   24246.61291784  .00003870  00000+0  50606-3 0  9993
2 56730  86.6788 304.9634 0002132  87.9208 272.2257 14.80209336 69836
